[{"OBJECT_NAME":"IRIDIUM 149","OBJECT_ID":"2018-030B","EPOCH":"2026-03-09T19:36:11.240064","MEAN_MOTION":14.34219768,"ECCENTRICITY":0.00021302,"INCLINATION":86.4008,"RA_OF_ASC_NODE":331.9304,"ARG_OF_PERICENTER":82.8556,"MEAN_ANOMALY":277.2882,"EPHEMERIS_TYPE":0,"CLASSIFICATION_TYPE":"U","NORAD_CAT_ID":43250,"ELEMENT_SET_NO":999,"REV_AT_EPOCH":41591,"BSTAR":0.00012927416,"MEAN_MOTION_DOT":3.82e-6,"MEAN_MOTION_DDOT":0},{"OBJECT_NAME":"NOAA 16 DEB","OBJECT_ID":"2000-055LU","EPOCH":"2026-03-08T17:15:26.323488","MEAN_MOTION":14.3726768,"ECCENTRICITY":0.00176947,"INCLINATION":98.7229,"RA_OF_ASC_NODE":171.7484,"ARG_OF_PERICENTER":135.9172,"MEAN_ANOMALY":224.3428,"EPHEMERIS_TYPE":0,"CLASSIFICATION_TYPE":"U","NORAD_CAT_ID":41496,"ELEMENT_SET_NO":999,"REV_AT_EPOCH":51888,"BSTAR":0.0026979799,"MEAN_MOTION_DOT":8.018e-5,"MEAN_MOTION_DDOT":0}]
